NORAD_CAT_ID,OBJECT_NAME,OBJECT_TYPE,EPOCH,MEAN_MOTION,ECCENTRICITY,INCLINATION,RA_OF_ASC_NODE,ARG_OF_PERICENTER,MEAN_ANOMALY,BSTAR,MEAN_MOTION_DOT,MEAN_MOTION_DDOT,TLE_LINE0,TLE_LINE1,TLE_LINE2,SEMIMAJOR_AXIS,PERIOD,APOGEE,PERIGEE,DECAYED
51788.0,STARLINK-3641,PAYLOAD,2023-08-08 11:01:58,15.08846285,0.0001134,53.2167,267.9355,73.8354,286.2763,0.0001892,2.725e-05,0.0,0 STARLINK-3641,1 51788U 22017W   23220.45969930  .00002725  00000-0  18920-3 0  9994,2 51788  53.2167 267.9355 0001134  73.8354 286.2763 15.08846285 81371,6917.861,95.437,540.511,538.942,0.0
51788.0,STARLINK-3641,PAYLOAD,2023-08-09 09:17:22,15.08837423,0.0001088,53.2166,263.7711,85.4427,274.6689,2.1005e-05,4.7e-07,0.0,0 STARLINK-3641,1 51788U 22017W   23221.38706936  .00000047  00000-0  21005-4 0  9996,2 51788  53.2166 263.7711 0001088  85.4427 274.6689 15.08837423 81516,6917.888,95.438,540.506,539.001,0.0
51788.0,STARLINK-3641,PAYLOAD,2023-08-10 09:08:09,15.08846283,0.0001169,53.2169,259.3104,86.2052,273.9074,1.0786e-05,-1.16e-06,0.0,0 STARLINK-3641,1 51788U 22017W   23222.38066342 -.00000116  00000-0  10786-4 0  9999,2 51788  53.2169 259.3104 0001169  86.2052 273.9074 15.08846283 81669,6917.861,95.437,540.535,538.917,0.0
51788.0,STARLINK-3641,PAYLOAD,2023-08-11 08:58:56,15.08838846,0.0001137,53.216,254.8498,85.8163,274.2959,9.3469e-05,1.2e-05,0.0,0 STARLINK-3641,1 51788U 22017W   23223.37426511  .00001200  00000-0  93469-4 0  9990,2 51788  53.2160 254.8498 0001137  85.8163 274.2959 15.08838846 81818,6917.884,95.438,540.535,538.962,0.0
51788.0,STARLINK-3641,PAYLOAD,2023-08-12 08:49:44,15.08835733,0.0001244,53.2168,250.389,86.3022,273.8112,-1.2093e-05,-4.8e-06,0.0,0 STARLINK-3641,1 51788U 22017W   23224.36787199 -.00000480  00000-0 -12093-4 0  9997,2 51788  53.2168 250.3890 0001244  86.3022 273.8112 15.08835733 81966,6917.893,95.438,540.619,538.898,0.0
51788.0,STARLINK-3641,PAYLOAD,2023-08-13 18:12:49,15.08837545,0.000126,53.2174,244.1432,83.1992,276.9144,-8.0833e-06,-4.16e-06,0.0,0 STARLINK-3641,1 51788U 22017W   23225.75891126 -.00000416  00000-0 -80833-5 0  9994,2 51788  53.2174 244.1432 0001260  83.1992 276.9144 15.08837545 82171,6917.888,95.438,540.625,538.881,0.0
51788.0,STARLINK-3641,PAYLOAD,2023-08-15 08:22:05,15.08839675,0.0001222,53.2163,237.0089,88.0388,272.0744,9.3144e-05,1.195e-05,0.0,0 STARLINK-3641,1 51788U 22017W   23227.34866981  .00001195  00000-0  93144-4 0  9993,2 51788  53.2163 237.0089 0001222  88.0388 272.0744 15.08839675 82415,6917.881,95.438,540.592,538.901,0.0
51788.0,STARLINK-3641,PAYLOAD,2023-08-16 00:15:56,15.0883587,0.000122,53.2161,234.0339,84.9564,275.1567,4.3465e-05,4.04e-06,0.0,0 STARLINK-3641,1 51788U 22017W   23228.01107483  .00000404  00000-0  43465-4 0  9996,2 51788  53.2161 234.0339 0001220  84.9564 275.1567 15.08835870 82518,6917.893,95.438,540.602,538.914,0.0
51788.0,STARLINK-3641,PAYLOAD,2023-08-17 09:39:01,15.0884766,0.0001235,53.216,227.7889,85.4335,274.6798,8.4808e-05,1.062e-05,0.0,0 STARLINK-3641,1 51788U 22017W   23229.40210581  .00001062  00000-0  84808-4 0  9991,2 51788  53.2160 227.7889 0001235  85.4335 274.6798 15.08847660 82727,6917.857,95.437,540.576,538.868,0.0
51788.0,STARLINK-3641,PAYLOAD,2023-08-17 17:35:58,15.0884013,0.0001434,53.2167,226.3032,78.5965,281.5188,2.7891e-05,1.56e-06,0.0,0 STARLINK-3641,1 51788U 22017W   23229.73331270  .00000156  00000-0  27891-4 0  9998,2 51788  53.2167 226.3032 0001434  78.5965 281.5188 15.08840130 82772,6917.88,95.438,540.737,538.753,0.0
51788.0,STARLINK-3641,PAYLOAD,2023-08-19 04:34:27,15.08838601,0.0001298,53.2165,219.7605,90.4928,269.6213,-6.3805e-06,-3.89e-06,0.0,0 STARLINK-3641,1 51788U 22017W   23231.19059576 -.00000389  00000-0 -63805-5 0  9993,2 51788  53.2165 219.7605 0001298  90.4928 269.6213 15.08838601 82992,6917.885,95.438,540.648,538.852,0.0
51788.0,STARLINK-3641,PAYLOAD,2023-08-19 10:55:59,15.08850524,0.0001279,53.2168,218.571,88.5976,271.5163,-6.4513e-05,-1.315e-05,0.0,0 STARLINK-3641,1 51788U 22017W   23231.45554951 -.00001315  00000-0 -64513-4 0  9995,2 51788  53.2168 218.5710 0001279  88.5976 271.5163 15.08850524 83039,6917.848,95.437,540.598,538.828,0.0
51788.0,STARLINK-3641,PAYLOAD,2023-08-20 02:49:51,15.0883362,0.0001292,53.2166,215.5968,95.0854,265.0286,3.8173e-05,3.2e-06,0.0,0 STARLINK-3641,1 51788U 22017W   23232.11795919  .00000320  00000-0  38173-4 0  9996,2 51788  53.2166 215.5968 0001292  95.0854 265.0286 15.08833620 83135,6917.9,95.438,540.659,538.871,0.0
51788.0,STARLINK-3641,PAYLOAD,2023-08-21 04:16:01,15.08837431,0.0001379,53.2171,210.841,93.6769,266.438,4.0088e-05,3.5e-06,0.0,0 STARLINK-3641,1 51788U 22017W   23233.17780032  .00000350  00000-0  40088-4 0  9994,2 51788  53.2171 210.8410 0001379  93.6769 266.4380 15.08837431 83297,6917.888,95.438,540.707,538.799,0.0
51788.0,STARLINK-3641,PAYLOAD,2023-08-22 07:17:35,15.08845132,0.0001796,53.218,205.7844,98.0244,262.0952,-5.4546e-05,-1.156e-05,0.0,0 STARLINK-3641,1 51788U 22017W   23234.30388165 -.00001156  00000-0 -54546-4 0  9992,2 51788  53.2180 205.7844 0001796  98.0244 262.0952 15.08845132 83464,6917.865,95.437,540.972,538.487,0.0
51788.0,STARLINK-3641,PAYLOAD,2023-08-23 02:22:13,15.08826723,0.0001703,53.218,202.2162,98.7403,261.3783,0.00026604,3.947e-05,0.0,0 STARLINK-3641,1 51788U 22017W   23235.09876350  .00003947  00000-0  26604-3 0  9998,2 51788  53.2180 202.2162 0001703  98.7403 261.3783 15.08826723 83583,6917.921,95.438,540.964,538.608,0.0
51788.0,STARLINK-3641,PAYLOAD,2023-08-23 10:19:08,15.08848089,0.000142,53.217,200.7295,81.7894,278.3259,0.00010767,1.426e-05,0.0,0 STARLINK-3641,1 51788U 22017W   23235.42995603  .00001426  00000-0  10767-3 0  9991,2 51788  53.2170 200.7295 0001420  81.7894 278.3259 15.08848089 83635,6917.856,95.437,540.703,538.738,0.0
51788.0,STARLINK-3641,PAYLOAD,2023-08-24 06:59:09,15.08838267,0.0001498,53.2175,196.8617,87.7159,272.4005,2.3234e-05,8.2e-07,0.0,0 STARLINK-3641,1 51788U 22017W   23236.29108613  .00000082  00000-0  23234-4 0  9995,2 51788  53.2175 196.8617 0001498  87.7159 272.4005 15.08838267 83763,6917.886,95.438,540.787,538.714,0.0
51788.0,STARLINK-3641,PAYLOAD,2023-08-25 03:39:09,15.0884883,0.0001507,53.2175,192.9956,101.9513,258.1648,8.4309e-05,1.054e-05,0.0,0 STARLINK-3641,1 51788U 22017W   23237.15219572  .00001054  00000-0  84309-4 0  9998,2 51788  53.2175 192.9956 0001507 101.9513 258.1648 15.08848830 83895,6917.853,95.437,540.761,538.676,0.0
51788.0,STARLINK-3641,PAYLOAD,2023-08-26 00:19:11,15.08840667,0.0001396,53.2172,189.1315,103.8132,256.3016,3.3196e-05,2.4e-06,0.0,0 STARLINK-3641,1 51788U 22017W   23238.01332265  .00000240  00000-0  33196-4 0  9993,2 51788  53.2172 189.1315 0001396 103.8132 256.3016 15.08840667 84028,6917.878,95.438,540.709,538.778,0.0
51788.0,STARLINK-3641,PAYLOAD,2023-08-26 06:40:43,15.08839814,0.0001622,53.2188,187.9398,101.9967,258.1207,-6.0098e-06,-3.84e-06,0.0,0 STARLINK-3641,1 51788U 22017W   23238.27828422 -.00000384  00000-0 -60098-5 0  9999,2 51788  53.2188 187.9398 0001622 101.9967 258.1207 15.08839814 84067,6917.881,95.438,540.868,538.624,0.0
51788.0,STARLINK-3641,PAYLOAD,2023-08-27 01:45:21,15.0884904,0.0001501,53.2177,184.3724,114.5368,245.5781,-0.00010241,-1.918e-05,0.0,0 STARLINK-3641,1 51788U 22017W   23239.07316155 -.00001918  00000-0 -10241-3 0  9990,2 51788  53.2177 184.3724 0001501 114.5368 245.5781 15.08849040 84182,6917.853,95.437,540.756,538.679,0.0
51788.0,STARLINK-3641,PAYLOAD,2023-08-27 06:31:30,15.08847577,0.000141,53.2182,183.4818,91.898,268.2174,-3.1772e-05,-7.94e-06,0.0,0 STARLINK-3641,1 51788U 22017W   23239.27188084 -.00000794  00000-0 -31772-4 0  9994,2 51788  53.2182 183.4818 0001410  91.8980 268.2174 15.08847577 84213,6917.857,95.437,540.698,538.747,0.0
51788.0,STARLINK-3641,PAYLOAD,2023-08-27 20:49:59,15.08835101,0.0001438,53.2188,180.8052,85.5378,274.5778,4.2629e-05,3.9e-06,0.0,0 STARLINK-3641,1 51788U 22017W   23239.86804801  .00000390  00000-0  42629-4 0  9994,2 51788  53.2188 180.8052 0001438  85.5378 274.5778 15.08835101 84301,6917.895,95.438,540.755,538.766,0.0
51788.0,STARLINK-3641,PAYLOAD,2023-08-28 03:11:31,15.08843651,0.0001276,53.2184,179.6207,90.4085,269.7053,2.7937e-05,1.57e-06,0.0,0 STARLINK-3641,1 51788U 22017W   23240.13300316  .00000157  00000-0  27937-4 0  9994,2 51788  53.2184 179.6207 0001276  90.4085 269.7053 15.08843651 84340,6917.869,95.437,540.617,538.852,0.0
51788.0,STARLINK-3641,PAYLOAD,2023-08-28 19:05:23,15.0883399,0.0001278,53.2178,176.6458,96.6062,263.5076,6.0126e-05,6.69e-06,0.0,0 STARLINK-3641,1 51788U 22017W   23240.79540909  .00000669  00000-0  60126-4 0  9995,2 51788  53.2178 176.6458 0001278  96.6062 263.5076 15.08833990 84446,6917.899,95.438,540.648,538.88,0.0
51788.0,STARLINK-3641,PAYLOAD,2023-08-29 12:34:37,15.08838045,0.0001487,53.2179,173.3738,89.4816,270.6347,-3.1928e-07,-2.93e-06,0.0,0 STARLINK-3641,1 51788U 22017W   23241.52405044 -.00000293  00000-0 -31928-6 0  9992,2 51788  53.2179 173.3738 0001487  89.4816 270.6347 15.08838045 84559,6917.886,95.438,540.78,538.723,0.0
51788.0,STARLINK-3641,PAYLOAD,2023-08-30 04:28:29,15.08835999,0.0001373,53.2174,170.3998,90.3915,269.7235,-7.1698e-06,-4.02e-06,0.0,0 STARLINK-3641,1 51788U 22017W   23242.18645488 -.00000402  00000-0 -71698-5 0  9992,2 51788  53.2174 170.3998 0001373  90.3915 269.7235 15.08835999 84655,6917.893,95.438,540.707,538.808,0.0
51788.0,STARLINK-3641,PAYLOAD,2023-08-30 12:25:25,15.08838184,0.0001347,53.2174,168.9118,83.7437,276.3709,-5.2827e-06,-3.72e-06,0.0,0 STARLINK-3641,1 51788U 22017W   23242.51765411 -.00000372  00000-0 -52827-5 0  9997,2 51788  53.2174 168.9118 0001347  83.7437 276.3709 15.08838184 84703,6917.886,95.438,540.683,538.819,0.0
51788.0,STARLINK-3641,PAYLOAD,2023-08-31 01:08:30,15.0882637,0.0001524,53.2175,166.5327,86.1206,273.9961,0.00023741,3.491e-05,0.0,0 STARLINK-3641,1 51788U 22017W   23243.04757806  .00003491  00000-0  23741-3 0  9999,2 51788  53.2175 166.5327 0001524  86.1206 273.9961 15.08826370 84783,6917.922,95.438,540.841,538.733,0.0
